[{"OBJECT_NAME":"ASTROCAST-0404","OBJECT_ID":"2023-001DH","EPOCH":"2026-03-09T19:24:02.920896","MEAN_MOTION":15.26309833,"ECCENTRICITY":0.00068478,"INCLINATION":97.5646,"RA_OF_ASC_NODE":161.5422,"ARG_OF_PERICENTER":1.1317,"MEAN_ANOMALY":358.9936,"EPHEMERIS_TYPE":0,"CLASSIFICATION_TYPE":"U","NORAD_CAT_ID":55112,"ELEMENT_SET_NO":999,"REV_AT_EPOCH":12936,"BSTAR":0.00034435555,"MEAN_MOTION_DOT":8.87e-5,"MEAN_MOTION_DDOT":0},{"OBJECT_NAME":"STARLINK-31751","OBJECT_ID":"2024-076L","EPOCH":"2026-03-09T06:17:50.336160","MEAN_MOTION":15.27577347,"ECCENTRICITY":9.766e-5,"INCLINATION":43.0006,"RA_OF_ASC_NODE":11.7415,"ARG_OF_PERICENTER":263.6594,"MEAN_ANOMALY":96.4146,"EPHEMERIS_TYPE":0,"CLASSIFICATION_TYPE":"U","NORAD_CAT_ID":59574,"ELEMENT_SET_NO":999,"REV_AT_EPOCH":10643,"BSTAR":-7.98677e-5,"MEAN_MOTION_DOT":-2.459e-5,"MEAN_MOTION_DDOT":0}]
